STARLINK-31121          
1 58685U 23211U   26068.45914014 -.00018096  00000+0 -64837-3 0  9997
2 58685  42.9995  86.2025 0001102 209.0829 150.9962 15.27644877122434
FLOCK 4G-24             
1 62637U 25009AE  26068.72509072  .00010513  00000+0  38996-3 0  9991
2 62637  97.4061 151.5140 0001802 280.2808  79.8228 15.27784978 63732
